METOP-B                 
1 38771U 12049A   26062.10984919  .00000134  00000+0  81125-4 0  9997
2 38771  98.6655 115.6570 0001240 302.2211  57.8846 14.21442069698194
SARAL                   
1 39086U 13009A   26062.17656953  .00000146  00000+0  69750-4 0  9998
2 39086  98.5551 250.0741 0001113 202.9445 157.1689 14.32825727680420
METOP-C                 
1 43689U 18087A   26062.13447237  .00000134  00000+0  81006-4 0  9997
2 43689  98.6779 123.6183 0002155 109.0588 251.0823 14.21494386379761
OTB-3-GAZELLE           
1 54023U 22127A   26061.94366963  .00000082  00000+0  37552-4 0  9994
2 54023  98.3900  55.2940 0013799 144.8352 215.3752 14.42632310179048
EOS-6 (OCEANSAT-3)      
1 54361U 22158A   26062.22639843  .00000412  00000+0  12526-3 0  9995
2 54361  98.3491 161.8638 0000286  30.1283 329.9926 14.46998427172511
KINEIS-1B               
1 60079U 24114A   26062.14674988  .00001429  00000+0  19407-3 0  9996
2 60079  97.9928  86.8070 0003860  86.4300 273.7353 14.80395412 91710
KINEIS-1C               
1 60081U 24114C   26062.18044229  .00001317  00000+0  17942-3 0  9990
2 60081  97.9949  86.6646 0001967 126.0794 234.0600 14.80387469 91692
KINEIS-1D               
1 60082U 24114D   26062.23406016  .00000927  00000+0  14178-3 0  9997
2 60082  97.9973  83.4947 0002156 134.5316 225.6070 14.76099089 91492
KINEIS-1E               
1 60083U 24114E   26062.19742073  .00001328  00000+0  18081-3 0  9992
2 60083  97.9935  86.7631 0002475  95.2504 264.8990 14.80405578 91702
KINEIS-1A               
1 60084U 24114F   26062.23126501  .00001086  00000+0  14899-3 0  9994
2 60084  97.9942  86.9191 0004758 106.9257 253.2477 14.80421593 91713
KINEIS-3C               
1 61220U 24172A   26062.18859060  .00002728  00000+0  43959-3 0  9991
2 61220  98.0303 153.2688 0003521 113.5678 246.5899 14.72276151 77475
KINEIS-3D               
1 61221U 24172B   26062.18195519  .00002735  00000+0  44078-3 0  9995
2 61221  98.0305 153.2736 0002528 117.5312 242.6152 14.72279996 77757
KINEIS-3E               
1 61222U 24172C   26062.16487077  .00002686  00000+0  43313-3 0  9993
2 61222  98.0300 153.2522 0001604 110.8198 249.3181 14.72268534 77750
KINEIS-3A               
1 61223U 24172D   26062.14791909  .00002686  00000+0  43280-3 0  9997
2 61223  98.0295 153.3244 0003160  83.9061 276.2506 14.72296128 77170
KINEIS-3B               
1 61224U 24172E   26062.19880241  .00002658  00000+0  42879-3 0  9993
2 61224  98.0293 153.4082 0003685  76.3946 283.7671 14.72250475 77755
KINEIS-5C               
1 62081U 24219A   26062.17569236  .00001254  00000+0  20595-3 0  9995
2 62081  97.9722 223.7572 0001704  98.2291 261.9110 14.72345682 68158
KINEIS-5D               
1 62082U 24219B   26062.20961939  .00001722  00000+0  28013-3 0  9999
2 62082  97.9646 223.7758 0001173  74.6095 285.5242 14.72322097 68164
