[{"OBJECT_NAME":"METOP-B","OBJECT_ID":"2012-049A","EPOCH":"2026-03-03T02:38:10.970016","MEAN_MOTION":14.21442069,"ECCENTRICITY":0.000124,"INCLINATION":98.6655,"RA_OF_ASC_NODE":115.657,"ARG_OF_PERICENTER":302.2211,"MEAN_ANOMALY":57.8846,"EPHEMERIS_TYPE":0,"CLASSIFICATION_TYPE":"U","NORAD_CAT_ID":38771,"ELEMENT_SET_NO":999,"REV_AT_EPOCH":69819,"BSTAR":8.1125e-5,"MEAN_MOTION_DOT":1.34e-6,"MEAN_MOTION_DDOT":0},{"OBJECT_NAME":"SARAL","OBJECT_ID":"2013-009A","EPOCH":"2026-03-03T04:14:15.607392","MEAN_MOTION":14.32825727,"ECCENTRICITY":0.0001113,"INCLINATION":98.5551,"RA_OF_ASC_NODE":250.0741,"ARG_OF_PERICENTER":202.9445,"MEAN_ANOMALY":157.1689,"EPHEMERIS_TYPE":0,"CLASSIFICATION_TYPE":"U","NORAD_CAT_ID":39086,"ELEMENT_SET_NO":999,"REV_AT_EPOCH":68042,"BSTAR":6.975e-5,"MEAN_MOTION_DOT":1.46e-6,"MEAN_MOTION_DDOT":0},{"OBJECT_NAME":"METOP-C","OBJECT_ID":"2018-087A","EPOCH":"2026-03-03T03:13:38.412768","MEAN_MOTION":14.21494386,"ECCENTRICITY":0.0002155,"INCLINATION":98.6779,"RA_OF_ASC_NODE":123.6183,"ARG_OF_PERICENTER":109.0588,"MEAN_ANOMALY":251.0823,"EPHEMERIS_TYPE":0,"CLASSIFICATION_TYPE":"U","NORAD_CAT_ID":43689,"ELEMENT_SET_NO":999,"REV_AT_EPOCH":37976,"BSTAR":8.1006e-5,"MEAN_MOTION_DOT":1.34e-6,"MEAN_MOTION_DDOT":0},{"OBJECT_NAME":"OTB-3-GAZELLE","OBJECT_ID":"2022-127A","EPOCH":"2026-03-02T22:38:53.056032","MEAN_MOTION":14.4263231,"ECCENTRICITY":0.0013799,"INCLINATION":98.39,"RA_OF_ASC_NODE":55.294,"ARG_OF_PERICENTER":144.8352,"MEAN_ANOMALY":215.3752,"EPHEMERIS_TYPE":0,"CLASSIFICATION_TYPE":"U","NORAD_CAT_ID":54023,"ELEMENT_SET_NO":999,"REV_AT_EPOCH":17904,"BSTAR":3.7552e-5,"MEAN_MOTION_DOT":8.2e-7,"MEAN_MOTION_DDOT":0},{"OBJECT_NAME":"EOS-6 (OCEANSAT-3)","OBJECT_ID":"2022-158A","EPOCH":"2026-03-03T05:26:00.824352","MEAN_MOTION":14.46998427,"ECCENTRICITY":2.86e-5,"INCLINATION":98.3491,"RA_OF_ASC_NODE":161.8638,"ARG_OF_PERICENTER":30.1283,"MEAN_ANOMALY":329.9926,"EPHEMERIS_TYPE":0,"CLASSIFICATION_TYPE":"U","NORAD_CAT_ID":54361,"ELEMENT_SET_NO":999,"REV_AT_EPOCH":17251,"BSTAR":0.00012526,"MEAN_MOTION_DOT":4.12e-6,"MEAN_MOTION_DDOT":0},{"OBJECT_NAME":"KINEIS-1B","OBJECT_ID":"2024-114A","EPOCH":"2026-03-03T03:31:19.189632","MEAN_MOTION":14.80395412,"ECCENTRICITY":0.000386,"INCLINATION":97.9928,"RA_OF_ASC_NODE":86.807,"ARG_OF_PERICENTER":86.43,"MEAN_ANOMALY":273.7353,"EPHEMERIS_TYPE":0,"CLASSIFICATION_TYPE":"U","NORAD_CAT_ID":60079,"ELEMENT_SET_NO":999,"REV_AT_EPOCH":9171,"BSTAR":0.00019407,"MEAN_MOTION_DOT":1.429e-5,"MEAN_MOTION_DDOT":0},{"OBJECT_NAME":"KINEIS-1C","OBJECT_ID":"2024-114C","EPOCH":"2026-03-03T04:19:50.213856","MEAN_MOTION":14.80387469,"ECCENTRICITY":0.0001967,"INCLINATION":97.9949,"RA_OF_ASC_NODE":86.6646,"ARG_OF_PERICENTER":126.0794,"MEAN_ANOMALY":234.06,"EPHEMERIS_TYPE":0,"CLASSIFICATION_TYPE":"U","NORAD_CAT_ID":60081,"ELEMENT_SET_NO":999,"REV_AT_EPOCH":9169,"BSTAR":0.00017942,"MEAN_MOTION_DOT":1.317e-5,"MEAN_MOTION_DDOT":0},{"OBJECT_NAME":"KINEIS-1D","OBJECT_ID":"2024-114D","EPOCH":"2026-03-03T05:37:02.797824","MEAN_MOTION":14.76099089,"ECCENTRICITY":0.0002156,"INCLINATION":97.9973,"RA_OF_ASC_NODE":83.4947,"ARG_OF_PERICENTER":134.5316,"MEAN_ANOMALY":225.607,"EPHEMERIS_TYPE":0,"CLASSIFICATION_TYPE":"U","NORAD_CAT_ID":60082,"ELEMENT_SET_NO":999,"REV_AT_EPOCH":9149,"BSTAR":0.00014178,"MEAN_MOTION_DOT":9.27e-6,"MEAN_MOTION_DDOT":0},{"OBJECT_NAME":"KINEIS-1E","OBJECT_ID":"2024-114E","EPOCH":"2026-03-03T04:44:17.151072","MEAN_MOTION":14.80405578,"ECCENTRICITY":0.0002475,"INCLINATION":97.9935,"RA_OF_ASC_NODE":86.7631,"ARG_OF_PERICENTER":95.2504,"MEAN_ANOMALY":264.899,"EPHEMERIS_TYPE":0,"CLASSIFICATION_TYPE":"U","NORAD_CAT_ID":60083,"ELEMENT_SET_NO":999,"REV_AT_EPOCH":9170,"BSTAR":0.00018081,"MEAN_MOTION_DOT":1.328e-5,"MEAN_MOTION_DDOT":0},{"OBJECT_NAME":"KINEIS-1A","OBJECT_ID":"2024-114F","EPOCH":"2026-03-03T05:33:01.296864","MEAN_MOTION":14.80421593,"ECCENTRICITY":0.0004758,"INCLINATION":97.9942,"RA_OF_ASC_NODE":86.9191,"ARG_OF_PERICENTER":106.9257,"MEAN_ANOMALY":253.2477,"EPHEMERIS_TYPE":0,"CLASSIFICATION_TYPE":"U","NORAD_CAT_ID":60084,"ELEMENT_SET_NO":999,"REV_AT_EPOCH":9171,"BSTAR":0.00014899,"MEAN_MOTION_DOT":1.086e-5,"MEAN_MOTION_DDOT":0},{"OBJECT_NAME":"KINEIS-3C","OBJECT_ID":"2024-172A","EPOCH":"2026-03-03T04:31:34.227840","MEAN_MOTION":14.72276151,"ECCENTRICITY":0.0003521,"INCLINATION":98.0303,"RA_OF_ASC_NODE":153.2688,"ARG_OF_PERICENTER":113.5678,"MEAN_ANOMALY":246.5899,"EPHEMERIS_TYPE":0,"CLASSIFICATION_TYPE":"U","NORAD_CAT_ID":61220,"ELEMENT_SET_NO":999,"REV_AT_EPOCH":7747,"BSTAR":0.00043959,"MEAN_MOTION_DOT":2.728e-5,"MEAN_MOTION_DDOT":0},{"OBJECT_NAME":"KINEIS-3D","OBJECT_ID":"2024-172B","EPOCH":"2026-03-03T04:22:00.928416","MEAN_MOTION":14.72279996,"ECCENTRICITY":0.0002528,"INCLINATION":98.0305,"RA_OF_ASC_NODE":153.2736,"ARG_OF_PERICENTER":117.5312,"MEAN_ANOMALY":242.6152,"EPHEMERIS_TYPE":0,"CLASSIFICATION_TYPE":"U","NORAD_CAT_ID":61221,"ELEMENT_SET_NO":999,"REV_AT_EPOCH":7775,"BSTAR":0.00044078,"MEAN_MOTION_DOT":2.735e-5,"MEAN_MOTION_DDOT":0},{"OBJECT_NAME":"KINEIS-3E","OBJECT_ID":"2024-172C","EPOCH":"2026-03-03T03:57:24.834528","MEAN_MOTION":14.72268534,"ECCENTRICITY":0.0001604,"INCLINATION":98.03,"RA_OF_ASC_NODE":153.2522,"ARG_OF_PERICENTER":110.8198,"MEAN_ANOMALY":249.3181,"EPHEMERIS_TYPE":0,"CLASSIFICATION_TYPE":"U","NORAD_CAT_ID":61222,"ELEMENT_SET_NO":999,"REV_AT_EPOCH":7775,"BSTAR":0.00043313,"MEAN_MOTION_DOT":2.686e-5,"MEAN_MOTION_DDOT":0},{"OBJECT_NAME":"KINEIS-3A","OBJECT_ID":"2024-172D","EPOCH":"2026-03-03T03:33:00.209376","MEAN_MOTION":14.72296128,"ECCENTRICITY":0.000316,"INCLINATION":98.0295,"RA_OF_ASC_NODE":153.3244,"ARG_OF_PERICENTER":83.9061,"MEAN_ANOMALY":276.2506,"EPHEMERIS_TYPE":0,"CLASSIFICATION_TYPE":"U","NORAD_CAT_ID":61223,"ELEMENT_SET_NO":999,"REV_AT_EPOCH":7717,"BSTAR":0.0004328,"MEAN_MOTION_DOT":2.686e-5,"MEAN_MOTION_DDOT":0},{"OBJECT_NAME":"KINEIS-3B","OBJECT_ID":"2024-172E","EPOCH":"2026-03-03T04:46:16.528224","MEAN_MOTION":14.72250475,"ECCENTRICITY":0.0003685,"INCLINATION":98.0293,"RA_OF_ASC_NODE":153.4082,"ARG_OF_PERICENTER":76.3946,"MEAN_ANOMALY":283.7671,"EPHEMERIS_TYPE":0,"CLASSIFICATION_TYPE":"U","NORAD_CAT_ID":61224,"ELEMENT_SET_NO":999,"REV_AT_EPOCH":7775,"BSTAR":0.00042879,"MEAN_MOTION_DOT":2.658e-5,"MEAN_MOTION_DDOT":0},{"OBJECT_NAME":"KINEIS-5C","OBJECT_ID":"2024-219A","EPOCH":"2026-03-03T04:12:59.819904","MEAN_MOTION":14.72345682,"ECCENTRICITY":0.0001704,"INCLINATION":97.9722,"RA_OF_ASC_NODE":223.7572,"ARG_OF_PERICENTER":98.2291,"MEAN_ANOMALY":261.911,"EPHEMERIS_TYPE":0,"CLASSIFICATION_TYPE":"U","NORAD_CAT_ID":62081,"ELEMENT_SET_NO":999,"REV_AT_EPOCH":6815,"BSTAR":0.00020595,"MEAN_MOTION_DOT":1.254e-5,"MEAN_MOTION_DDOT":0},{"OBJECT_NAME":"KINEIS-5D","OBJECT_ID":"2024-219B","EPOCH":"2026-03-03T05:01:51.115296","MEAN_MOTION":14.72322097,"ECCENTRICITY":0.0001173,"INCLINATION":97.9646,"RA_OF_ASC_NODE":223.7758,"ARG_OF_PERICENTER":74.6095,"MEAN_ANOMALY":285.5242,"EPHEMERIS_TYPE":0,"CLASSIFICATION_TYPE":"U","NORAD_CAT_ID":62082,"ELEMENT_SET_NO":999,"REV_AT_EPOCH":6816,"BSTAR":0.00028013,"MEAN_MOTION_DOT":1.722e-5,"MEAN_MOTION_DDOT":0}]
